{
  "norad_id": 53840,
  "name": "STARLINK-4766",
  "history": [
    {
      "epoch": "2026-03-28T20:27:03.370176Z",
      "apogee_km": 540.5291472530407,
      "perigee_km": 538.9248945865884,
      "latitude_deg": -4.677986044371579e-05,
      "longitude_deg": 75.12669680369932,
      "height_km": 540.508230598473,
      "semi_major_axis_km": 6917.864020919814,
      "eccentricity": 0.00011595,
      "inclination_deg": 53.215,
      "raan_deg": 208.1574,
      "arg_perigee_deg": 81.7901,
      "mean_anomaly_deg": 278.3222,
      "mean_motion_rev_day": 15.08845355
    },
    {
      "epoch": "2026-03-29T01:13:13.878048Z",
      "apogee_km": 540.5042905840883,
      "perigee_km": 539.0390775248052,
      "latitude_deg": -2.5791538607579338e-05,
      "longitude_deg": 2.49404966157731,
      "height_km": 540.7025969386204,
      "semi_major_axis_km": 6917.908684054446,
      "eccentricity": 0.0001059,
      "inclination_deg": 53.2151,
      "raan_deg": 207.2644,
      "arg_perigee_deg": 92.7414,
      "mean_anomaly_deg": 267.3699,
      "mean_motion_rev_day": 15.08830743
    },
    {
      "epoch": "2026-03-30T01:04:00.284736Z",
      "apogee_km": 540.4348803148932,
      "perigee_km": 539.0333196300389,
      "latitude_deg": -1.4511613270909518e-05,
      "longitude_deg": -0.6385322413332455,
      "height_km": 540.6328149660412,
      "semi_major_axis_km": 6917.871099972465,
      "eccentricity": 0.0001013,
      "inclination_deg": 53.2148,
      "raan_deg": 202.8045,
      "arg_perigee_deg": 90.2297,
      "mean_anomaly_deg": 269.8811,
      "mean_motion_rev_day": 15.08843039
    },
    {
      "epoch": "2026-03-30T01:04:00.285600Z",
      "apogee_km": 540.435087851025,
      "perigee_km": 539.0331120939054,
      "latitude_deg": -1.728167227696764e-05,
      "longitude_deg": -0.6385379109830235,
      "height_km": 540.6328157981459,
      "semi_major_axis_km": 6917.871099972465,
      "eccentricity": 0.00010133,
      "inclination_deg": 53.2148,
      "raan_deg": 202.8045,
      "arg_perigee_deg": 90.2297,
      "mean_anomaly_deg": 269.8811,
      "mean_motion_rev_day": 15.08843039
    },
    {
      "epoch": "2026-03-30T13:47:05.584416Z",
      "apogee_km": 540.5279994725561,
      "perigee_km": 538.9433915529225,
      "latitude_deg": -4.738517919595898e-06,
      "longitude_deg": 165.6875782374902,
      "height_km": 540.5804219916679,
      "semi_major_axis_km": 6917.872695512739,
      "eccentricity": 0.00011453,
      "inclination_deg": 53.2151,
      "raan_deg": 200.425,
      "arg_perigee_deg": 86.3068,
      "mean_anomaly_deg": 273.8055,
      "mean_motion_rev_day": 15.08842517
    },
    {
      "epoch": "2026-03-31T13:37:52.816224Z",
      "apogee_km": 540.731290898234,
      "perigee_km": 538.78777704598,
      "latitude_deg": -6.0569302380064165e-06,
      "longitude_deg": 162.55224030962157,
      "height_km": 540.6551374404658,
      "semi_major_axis_km": 6917.896533972106,
      "eccentricity": 0.00014047,
      "inclination_deg": 53.2158,
      "raan_deg": 195.9658,
      "arg_perigee_deg": 90.0077,
      "mean_anomaly_deg": 270.1076,
      "mean_motion_rev_day": 15.08834718
    },
    {
      "epoch": "2026-04-01T13:28:40.313280Z",
      "apogee_km": 540.6948510250659,
      "perigee_km": 538.8256351899781,
      "latitude_deg": 2.008560031617076e-05,
      "longitude_deg": 159.41471458444477,
      "height_km": 540.7009748076816,
      "semi_major_axis_km": 6917.897243107522,
      "eccentricity": 0.0001351,
      "inclination_deg": 53.2157,
      "raan_deg": 191.5055,
      "arg_perigee_deg": 92.7719,
      "mean_anomaly_deg": 267.3428,
      "mean_motion_rev_day": 15.08834486
    },
    {
      "epoch": "2026-04-02T13:19:26.751936Z",
      "apogee_km": 540.5167670482615,
      "perigee_km": 538.9772611397639,
      "latitude_deg": -4.6380884105390765e-05,
      "longitude_deg": 156.2814417019091,
      "height_km": 540.6638628000483,
      "semi_major_axis_km": 6917.884014094012,
      "eccentricity": 0.00011127,
      "inclination_deg": 53.2159,
      "raan_deg": 187.0451,
      "arg_perigee_deg": 91.5601,
      "mean_anomaly_deg": 268.5518,
      "mean_motion_rev_day": 15.08838814
    }
  ]
}